NORAD_CAT_ID,OBJECT_NAME,OBJECT_TYPE,EPOCH,MEAN_MOTION,ECCENTRICITY,INCLINATION,RA_OF_ASC_NODE,ARG_OF_PERICENTER,MEAN_ANOMALY,BSTAR,MEAN_MOTION_DOT,MEAN_MOTION_DDOT,TLE_LINE0,TLE_LINE1,TLE_LINE2,SEMIMAJOR_AXIS,PERIOD,APOGEE,PERIGEE,DECAYED
53251.0,STARLINK-4129,PAYLOAD,2022-11-08 20:55:50,15.08859381,0.0002255,53.2173,256.6324,28.5273,331.5842,0.00016769,2.383e-05,0.0,0 STARLINK-4129,1 53251U 22086K   22312.87211673  .00002383  00000-0  16769-3 0  9997,2 53251  53.2173 256.6324 0002255  28.5273 331.5842 15.08859381 17369,6917.821,95.436,541.246,538.126,0.0
53251.0,STARLINK-4129,PAYLOAD,2022-11-09 03:17:22,15.0886355,0.0002073,53.2176,255.4423,35.8838,324.2293,0.00019292,2.785e-05,0.0,0 STARLINK-4129,1 53251U 22086K   22313.13707009  .00002785  00000-0  19292-3 0  9990,2 53251  53.2176 255.4423 0002073  35.8838 324.2293 15.08863550 17222,6917.808000000001,95.436,541.107,538.239,0.0
53251.0,STARLINK-4129,PAYLOAD,2022-11-09 12:49:42,15.088422,0.0002502,53.2176,253.6567,33.1365,326.9784,0.00015657,2.205e-05,0.0,0 STARLINK-4129,1 53251U 22086K   22313.53452459  .00002205  00000-0  15657-3 0  9998,2 53251  53.2176 253.6567 0002502  33.1365 326.9784 15.08842200 17463,6917.874,95.437,541.47,538.008,0.0
53251.0,STARLINK-4129,PAYLOAD,2022-11-09 19:11:18,15.08803636,0.0001851,53.218,252.4686,33.4281,326.6827,-0.00024407,-4.167e-05,0.0,0 STARLINK-4129,1 53251U 22086K   22313.79952201 -.00004167  00000-0 -24407-3 0  9990,2 53251  53.2180 252.4686 0001851  33.4281 326.6827 15.08803636 17323,6917.9919999999975,95.44,541.137,538.576,0.0
53251.0,STARLINK-4129,PAYLOAD,2022-11-09 20:46:41,15.08804775,0.0002001,53.218,252.1718,34.9453,325.1670000000001,-0.00022705,-3.896e-05,0.0,0 STARLINK-4129,1 53251U 22086K   22313.86576226 -.00003896  00000-0 -22705-3 0  9994,2 53251  53.2180 252.1718 0002001  34.9453 325.1670 15.08804775 17517,6917.988,95.44,541.237,538.469,0.0
53251.0,STARLINK-4129,PAYLOAD,2022-11-10 12:40:33,15.08815081,0.0001994,53.2179,249.1988,37.8379,322.2753,-0.00017701,-3.102e-05,0.0,0 STARLINK-4129,1 53251U 22086K   22314.52816471 -.00003102  00000-0 -17701-3 0  9997,2 53251  53.2179 249.1988 0001994  37.8379 322.2753 15.08815081 17612,6917.956999999999,95.439,541.201,538.442,0.0
53251.0,STARLINK-4129,PAYLOAD,2022-11-11 04:34:24,15.08834547,0.0002207,53.2176,246.225,36.5265,323.5877,-0.0001261,-2.294e-05,0.0,0 STARLINK-4129,1 53251U 22086K   22315.19055619 -.00002294  00000-0 -12610-3 0  9995,2 53251  53.2176 246.2250 0002207  36.5265 323.5877 15.08834547 17537,6917.897,95.438,541.289,538.235,0.0
53251.0,STARLINK-4129,PAYLOAD,2022-11-11 12:31:19,15.08843865,0.000203,53.2175,244.738,36.9228,323.1904,-0.00010488,-1.957e-05,0.0,0 STARLINK-4129,1 53251U 22086K   22315.52175008 -.00001957  00000-0 -10488-3 0  9993,2 53251  53.2175 244.7380 0002030  36.9228 323.1904 15.08843865 17585,6917.869000000002,95.437,541.138,538.3290000000002,0.0
53251.0,STARLINK-4129,PAYLOAD,2022-11-12 12:22:06,15.08869195,0.0002234,53.216,240.2783,39.7981,320.3175,0.00083518,0.0001304,0.0,0 STARLINK-4129,1 53251U 22086K   22316.51535509  .00013040  00000-0  83518-3 0  9997,2 53251  53.2160 240.2783 0002234  39.7981 320.3175 15.08869195 17910,6917.791,95.436,541.202,538.111,0.0
53251.0,STARLINK-4129,PAYLOAD,2022-11-13 01:05:10,15.08866389,0.0002086,53.216,237.8983,37.015,323.0986,0.00033095,4.987e-05,0.0,0 STARLINK-4129,1 53251U 22086K   22317.04526540  .00004987  00000-0  33095-3 0  9996,2 53251  53.2160 237.8983 0002086  37.0150 323.0986 15.08866389 17819,6917.8,95.436,541.1080000000002,538.222,0.0
53251.0,STARLINK-4129,PAYLOAD,2022-11-13 12:12:53,15.08847585,0.0002396,53.2164,235.8154,41.349,318.7683,-0.00016203,-2.867e-05,0.0,0 STARLINK-4129,1 53251U 22086K   22317.50894853 -.00002867  00000-0 -16203-3 0  9991,2 53251  53.2164 235.8154 0002396  41.3490 318.7683 15.08847585 17889,6917.857,95.437,541.38,538.065,0.0
53251.0,STARLINK-4129,PAYLOAD,2022-11-13 18:34:25,15.08838601,0.0002112,53.2164,234.6258,46.5153,313.6014,-0.00027031,-4.588e-05,0.0,0 STARLINK-4129,1 53251U 22086K   22317.77391009 -.00004588  00000-0 -27031-3 0  9998,2 53251  53.2164 234.6258 0002112  46.5153 313.6014 15.08838601 18107,6917.885,95.438,541.211,538.289,0.0
53251.0,STARLINK-4129,PAYLOAD,2022-11-14 00:55:58,15.08824233,0.000217,53.2168,233.4381,34.3287,325.7845,-0.00041726,-6.92e-05,0.0,0 STARLINK-4129,1 53251U 22086K   22318.03887636 -.00006920  00000-0 -41726-3 0  9993,2 53251  53.2168 233.4381 0002170  34.3287 325.7845 15.08824233 17967,6917.929,95.439,541.295,538.2919999999998,0.0
53251.0,STARLINK-4129,PAYLOAD,2022-11-14 12:03:41,15.08824859,0.0002259,53.2181,231.3553,49.1274,310.9914,4.1122e-05,3.66e-06,0.0,0 STARLINK-4129,1 53251U 22086K   22318.50256227  .00000366  00000-0  41122-4 0  9998,2 53251  53.2181 231.3553 0002259  49.1274 310.9914 15.08824859 18214,6917.927,95.439,541.354,538.229,0.0
53251.0,STARLINK-4129,PAYLOAD,2022-11-14 21:35:59,15.08841413,0.0002303,53.2159,229.5729,39.252,320.8639,0.00016808,2.388e-05,0.0,0 STARLINK-4129,1 53251U 22086K   22318.89999809  .00002388  00000-0  16808-3 0  9998,2 53251  53.2159 229.5729 0002303  39.2520 320.8639 15.08841413 18092,6917.876,95.437,541.3340000000002,538.148,0.0
53251.0,STARLINK-4129,PAYLOAD,2022-11-15 03:57:32,15.088341,0.0002258,53.2166,228.3831,44.6235,315.4939,0.0006189,9.574e-05,0.0,0 STARLINK-4129,1 53251U 22086K   22319.16496190  .00009574  00000-0  61890-3 0  9999,2 53251  53.2166 228.3831 0002258  44.6235 315.4939 15.08834100 18316,6917.898,95.438,541.325,538.201,0.0
53251.0,STARLINK-4129,PAYLOAD,2022-11-15 21:26:46,15.08844911,0.0002016,53.2173,225.1111,46.6039,313.5121,0.00033342,5.023e-05,0.0,0 STARLINK-4129,1 53251U 22086K   22319.89359457  .00005023  00000-0  33342-3 0  9999,2 53251  53.2173 225.1111 0002016  46.6039 313.5121 15.08844911 18421,6917.865,95.437,541.125,538.336,0.0
53251.0,STARLINK-4129,PAYLOAD,2022-11-16 02:12:56,15.08833741,0.0001819,53.2166,224.2197,43.3267,316.7868,0.00017408,2.483e-05,0.0,0 STARLINK-4129,1 53251U 22086K   22320.09232012  .00002483  00000-0  17408-3 0  9992,2 53251  53.2166 224.2197 0001819  43.3267 316.7868 15.08833741 18279,6917.9,95.438,541.023,538.506,0.0
53251.0,STARLINK-4129,PAYLOAD,2022-11-16 10:09:52,15.08829475,0.0001912,53.2175,222.7338,41.9139,318.2,0.00013594,1.875e-05,0.0,0 STARLINK-4129,1 53251U 22086K   22320.42352322  .00001875  00000-0  13594-3 0  9992,2 53251  53.2175 222.7338 0001912  41.9139 318.2000 15.08829475 18505,6917.913000000001,95.438,541.1,538.455,0.0
53251.0,STARLINK-4129,PAYLOAD,2022-11-17 02:03:42,15.08851647,0.0002324,53.2169,219.7611,35.3761,324.7385,6.340600000000001e-05,7.21e-06,0.0,0 STARLINK-4129,1 53251U 22086K   22321.08591054  .00000721  00000-0  63406-4 0  9999,2 53251  53.2169 219.7611 0002324  35.3761 324.7385 15.08851647 18429,6917.845,95.437,541.317,538.102,0.0
53251.0,STARLINK-4129,PAYLOAD,2022-11-17 10:00:39,15.08842984,0.0002464,53.2179,218.2739,38.7325,321.3844,-7.0559e-08,-2.9e-06,0.0,0 STARLINK-4129,1 53251U 22086K   22321.41711812 -.00000290  00000-0 -70559-7 0  9995,2 53251  53.2179 218.2739 0002464  38.7325 321.3844 15.08842984 18475,6917.871,95.437,541.441,538.0319999999998,0.0
53251.0,STARLINK-4129,PAYLOAD,2022-11-18 01:54:30,15.08836714,0.0002061,53.216,215.3006,33.0584,327.0537,8.403700000000001e-05,1.049e-05,0.0,0 STARLINK-4129,1 53251U 22086K   22322.07951538  .00001049  00000-0  84037-4 0  9993,2 53251  53.2160 215.3006 0002061  33.0584 327.0537 15.08836714 18755,6917.89,95.438,541.181,538.33,0.0
53251.0,STARLINK-4129,PAYLOAD,2022-11-19 01:45:16,15.08846147,0.0001937,53.2164,210.8388,30.8792,329.2314,1.9476e-05,2.2e-07,0.0,0 STARLINK-4129,1 53251U 22086K   22323.07310911  .00000022  00000-0  19476-4 0  9993,2 53251  53.2164 210.8388 0001937  30.8792 329.2314 15.08846147 18724,6917.861999999999,95.437,541.067,538.387,0.0
53251.0,STARLINK-4129,PAYLOAD,2022-11-19 09:42:12,15.08842857,0.0002228,53.2163,209.3531,35.7516,324.3625,1.0664000000000003e-05,-1.19e-06,0.0,0 STARLINK-4129,1 53251U 22086K   22323.40431316 -.00000119  00000-0  10664-4 0  9991,2 53251  53.2163 209.3531 0002228  35.7516 324.3625 15.08842857 18958,6917.871999999999,95.437,541.278,538.195,0.0
53251.0,STARLINK-4129,PAYLOAD,2022-11-19 16:03:45,15.08840169,0.0002187,53.2162,208.1627,38.0476,322.067,6.671699999999999e-05,7.74e-06,0.0,0 STARLINK-4129,1 53251U 22086K   22323.66927460  .00000774  00000-0  66717-4 0  9995,2 53251  53.2162 208.1627 0002187  38.0476 322.0670 15.08840169 18819,6917.88,95.438,541.258,538.232,0.0
53251.0,STARLINK-4129,PAYLOAD,2022-11-20 09:32:59,15.08851667,0.0002315,53.2161,204.8922,38.0823,322.0333,0.00026433,3.922e-05,0.0,0 STARLINK-4129,1 53251U 22086K   22324.39790875  .00003922  00000-0  26433-3 0  9992,2 53251  53.2161 204.8922 0002315  38.0823 322.0333 15.08851667 18921,6917.845,95.437,541.311,538.1080000000002,0.0
53251.0,STARLINK-4129,PAYLOAD,2022-11-20 22:16:04,15.08845215,0.0002375,53.2172,202.5136,40.4892,319.6276,5.2528e-05,5.48e-06,0.0,0 STARLINK-4129,1 53251U 22086K   22324.92783038  .00000548  00000-0  52528-4 0  9990,2 53251  53.2172 202.5136 0002375  40.4892 319.6276 15.08845215 19004,6917.864000000001,95.437,541.372,538.086,0.0
53251.0,STARLINK-4129,PAYLOAD,2022-11-21 09:23:46,15.08835864,0.0002284,53.216,200.4316,36.0524,324.0622,-3.982e-05,-9.22e-06,0.0,0 STARLINK-4129,1 53251U 22086K   22325.39151586 -.00000922  00000-0 -39820-4 0  9997,2 53251  53.2160 200.4316 0002284  36.0524 324.0622 15.08835864 19071,6917.893,95.438,541.3380000000002,538.178,0.0
53251.0,STARLINK-4129,PAYLOAD,2022-11-21 22:06:52,15.08838934,0.0002345,53.2154,198.0533,37.8172,322.2985,3.7703e-05,3.12e-06,0.0,0 STARLINK-4129,1 53251U 22086K   22325.92143641  .00000312  00000-0  37703-4 0  9998,2 53251  53.2154 198.0533 0002345  37.8172 322.2985 15.08838934 19335,6917.884,95.438,541.371,538.126,0.0
